OBJECT B                
1 51825U 22019B   24278.87601033  .00041442  00000+0  15837-2 0  9996
2 51825  97.4180 349.1169 0013032 207.7186 152.3360 15.26413305143935
